LEMUR-2-PETERG          
1 42841U 17042S   26068.48235713  .00023240  00000+0  81076-3 0  9993
2 42841  97.3980 253.6596 0003700 341.6938  18.4169 15.29611459473171
STARLINK-31981          
1 60035U 24111V   26068.44210462  .00001455  00000+0  61219-4 0  9995
2 60035  53.1608  76.9088 0001166  80.4858 279.6274 15.30206449 98923
