[{"OBJECT_NAME":"LEMUR-2-PETERG","OBJECT_ID":"2017-042S","EPOCH":"2026-03-09T11:34:35.656032","MEAN_MOTION":15.29611459,"ECCENTRICITY":0.00037,"INCLINATION":97.398,"RA_OF_ASC_NODE":253.6596,"ARG_OF_PERICENTER":341.6938,"MEAN_ANOMALY":18.4169,"EPHEMERIS_TYPE":0,"CLASSIFICATION_TYPE":"U","NORAD_CAT_ID":42841,"ELEMENT_SET_NO":999,"REV_AT_EPOCH":47317,"BSTAR":0.00081076471,"MEAN_MOTION_DOT":0.0002324,"MEAN_MOTION_DDOT":0},{"OBJECT_NAME":"STARLINK-31981","OBJECT_ID":"2024-111V","EPOCH":"2026-03-09T10:36:37.839168","MEAN_MOTION":15.30206449,"ECCENTRICITY":0.00011663,"INCLINATION":53.1608,"RA_OF_ASC_NODE":76.9088,"ARG_OF_PERICENTER":80.4858,"MEAN_ANOMALY":279.6274,"EPHEMERIS_TYPE":0,"CLASSIFICATION_TYPE":"U","NORAD_CAT_ID":60035,"ELEMENT_SET_NO":999,"REV_AT_EPOCH":9892,"BSTAR":6.121863e-5,"MEAN_MOTION_DOT":1.455e-5,"MEAN_MOTION_DDOT":0}]
